[{"OBJECT_NAME":"NANOSAT-1","OBJECT_ID":"2004-049B","EPOCH":"2026-03-09T22:09:44.581824","MEAN_MOTION":14.79922101,"ECCENTRICITY":0.00029678,"INCLINATION":98.2096,"RA_OF_ASC_NODE":203.2649,"ARG_OF_PERICENTER":243.7853,"MEAN_ANOMALY":116.3053,"EPHEMERIS_TYPE":0,"CLASSIFICATION_TYPE":"U","NORAD_CAT_ID":28493,"ELEMENT_SET_NO":999,"REV_AT_EPOCH":14076,"BSTAR":0.00025095221,"MEAN_MOTION_DOT":1.84e-5,"MEAN_MOTION_DDOT":0},{"OBJECT_NAME":"KUIPER-00121","OBJECT_ID":"2025-228D","EPOCH":"2026-03-09T22:33:16.731072","MEAN_MOTION":14.79887905,"ECCENTRICITY":8.902e-5,"INCLINATION":51.9015,"RA_OF_ASC_NODE":351.9872,"ARG_OF_PERICENTER":113.9064,"MEAN_ANOMALY":246.1992,"EPHEMERIS_TYPE":0,"CLASSIFICATION_TYPE":"U","NORAD_CAT_ID":65950,"ELEMENT_SET_NO":999,"REV_AT_EPOCH":2337,"BSTAR":-3.737894e-5,"MEAN_MOTION_DOT":-5.06e-6,"MEAN_MOTION_DDOT":0}]
